IRIDIUM 144             
1 43249U 18030A   24083.91568767  .00000090  00000+0  24962-4 0  9995
2 43249  86.3909 271.1125 0002155  89.6043 270.5400 14.34218581313283
IRIDIUM 149             
1 43250U 18030B   24084.06156966  .00000068  00000+0  17170-4 0  9996
2 43250  86.3908 271.0274 0002112  86.1335 274.0102 14.34218347313320
IRIDIUM 157             
1 43251U 18030C   24083.94105754  .00000076  00000+0  20057-4 0  9999
2 43251  86.3910 271.1131 0001841  94.7410 265.3996 14.34217840313280
IRIDIUM 140             
1 43252U 18030D   24084.51823220  .00000174  00000+0  54998-4 0  9999
2 43252  86.3909 270.8859 0002439  89.0083 271.1392 14.34219220313424
IRIDIUM 145             
1 43253U 18030E   24084.57531733 -.00000018  00000+0 -13516-4 0  9991
2 43253  86.3911 270.8359 0002187  83.4386 276.7058 14.34217263313365
IRIDIUM 146             
1 43254U 18030F   24084.06790968  .00000032  00000+0  42425-5 0  9999
2 43254  86.3910 271.0635 0002284  84.1941 275.9515 14.34217973313309
IRIDIUM 148             
1 43255U 18030G   24083.89665730  .00001329  00000+0  46740-3 0  9990
2 43255  86.3912 271.1655 0001988  83.3455 276.7967 14.34220355313315
IRIDIUM 142             
1 43256U 18030H   24083.93471587 -.00000008  00000+0 -10092-4 0  9998
2 43256  86.3910 271.0687 0002032  83.6218 276.5209 14.34217302313280
